     2.100          NAVIGATION                              RINEX VERSION / TYPE
fic2rin                                 10/19/2012 00:25:28 PGM / RUN BY / DATE
                                                            END OF HEADER
 9 12 10 18 18  0  0.0  .193323474377D-03  .272848410532D-11  .000000000000D+00
     .660000000000D+02 -.533750000000D+02  .423196199249D-08  .105086390527D+01
    -.312179327011D-05  .172563839005D-01  .254251062870D-05  .515365908241D+04
     .410400000000D+06 -.149011611938D-06 -.604233374277D+00 -.240281224251D-06
     .984567683653D+00  .344593750000D+03  .164722678028D+01 -.844106588999D-08
    -.173221501085D-09  .100000000000D+01  .171000000000D+04  .000000000000D+00
     .240000000000D+01  .000000000000D+00 -.558793544769D-08  .660000000000D+02
     .403206000000D+06  .400000000000D+01
10 12 10 18 18  0  0.0 -.556404702365D-04 -.125055521494D-11  .000000000000D+00
     .690000000000D+02  .594687500000D+02  .470876756764D-08 -.862084703620D+00
     .304728746414D-05  .117946297396D-01  .118836760521D-04  .515373198700D+04
     .410400000000D+06  .134110450745D-06 -.267283764006D+01  .186264514923D-06
     .945289853197D+00  .141812500000D+03  .763897613962D+00 -.811140930133D-08
    -.519307345521D-09  .100000000000D+01  .171000000000D+04  .000000000000D+00
     .340000000000D+01  .000000000000D+00 -.279396772385D-08  .690000000000D+02
     .403206000000D+06  .400000000000D+01
11 12 10 18 18  0  0.0 -.314106233418D-03 -.386535248253D-11  .000000000000D+00
     .630000000000D+02 -.200625000000D+02  .682349851182D-08  .179757863499D+01
    -.124797224998D-05  .136613816721D-01  .514462590218D-05  .515366987801D+04
     .410400000000D+06 -.223517417908D-06  .226226276444D+01 -.296160578728D-06
     .888203367978D+00  .243156250000D+03  .110738048296D+01 -.911859411176D-08
    -.800033324599D-10  .100000000000D+01  .171000000000D+04  .000000000000D+00
     .240000000000D+01  .000000000000D+00 -.116415321827D-07  .630000000000D+02
     .403206000000D+06  .400000000000D+01
12 12 10 18 18  0  0.0  .968645326793D-04  .204636307899D-11  .000000000000D+00
     .110000000000D+02 -.957187500000D+02  .383873132714D-08  .129929941694D+01
    -.519305467606D-05  .397919083480D-02  .103861093521D-04  .515369889069D+04
     .410400000000D+06 -.167638063431D-07  .477129074067D+00  .633299350739D-07
     .981774875024D+00  .193125000000D+03  .146276685743D+00 -.764496130047D-08
     .141077305007D-09  .100000000000D+01  .171000000000D+04  .000000000000D+00
     .240000000000D+01  .000000000000D+00 -.121071934700D-07  .110000000000D+02
     .403206000000D+06  .400000000000D+01
13 12 10 18 18  0  0.0  .173496082425D-03 -.261479726760D-11  .000000000000D+00
     .920000000000D+02  .120500000000D+03  .406874090796D-08 -.232830131059D+01
     .621378421783D-05  .477911124472D-02  .398978590965D-05  .515360748672D+04
     .410400000000D+06  .596046447754D-07 -.154885354308D+01  .689178705215D-07
     .983814064330D+00  .316062500000D+03  .207822991857D+01 -.808962267954D-08
     .201794119821D-09  .100000000000D+01  .171000000000D+04  .000000000000D+00
     .240000000000D+01  .000000000000D+00 -.111758708954D-07  .920000000000D+02
     .403206000000D+06  .400000000000D+01
14 12 10 18 18  0  0.0  .215084291995D-03  .795807864051D-12  .000000000000D+00
     .200000000000D+02  .103812500000D+03  .411624288661D-08 -.209580310643D+01
     .545941293240D-05  .684157479554D-02  .427849590778D-05  .515366024017D+04
     .410400000000D+06  .912696123123D-07 -.157657517359D+01 -.726431608200D-07
     .976594565072D+00  .308125000000D+03 -.203348380274D+01 -.800104756146D-08
     .202865593023D-09  .100000000000D+01  .171000000000D+04  .000000000000D+00
     .240000000000D+01  .000000000000D+00 -.884756445885D-08  .200000000000D+02
     .403206000000D+06  .400000000000D+01
15 12 10 18 18  0  0.0 -.975900329649D-04 -.795807864051D-12  .000000000000D+00
     .760000000000D+02  .120968750000D+03  .490734726785D-08 -.250292144603D+01
     .629946589470D-05  .479520740919D-02  .546500086784D-05  .515365050125D+04
     .410400000000D+06 -.484287738800D-07 -.166921196961D+01 -.335276126862D-07
     .943372731238D+00  .266593750000D+03  .410062959625D-01 -.840820737844D-08
     .246438836595D-09  .100000000000D+01  .171000000000D+04  .000000000000D+00
     .240000000000D+01  .000000000000D+00 -.102445483208D-07  .760000000000D+02
     .403206000000D+06  .400000000000D+01
16 12 10 18 18  0  0.0 -.248148106039D-03 -.682121026330D-12  .000000000000D+00
     .740000000000D+02 -.799062500000D+02  .378087177420D-08 -.932097882624D+00
    -.434368848801D-05  .652619625907D-02  .110864639282D-04  .515377029610D+04
     .410400000000D+06  .633299350739D-07  .495368275860D+00 -.134110450745D-06
     .982541284640D+00  .172093750000D+03  .287439571640D-01 -.765639034796D-08
     .240367155114D-09  .100000000000D+01  .171000000000D+04  .000000000000D+00
     .240000000000D+01  .000000000000D+00 -.977888703346D-08  .740000000000D+02
     .403206000000D+06  .400000000000D+01
17 12 10 18 18  0  0.0  .867308117449D-04 -.329691829393D-11  .000000000000D+00
     .730000000000D+02  .553125000000D+01  .473698302864D-08 -.184158546956D+01
     .348314642906D-06  .763403193559D-02  .806525349617D-05  .515374403572D+04
     .410400000000D+06  .139698386192D-06  .153445954977D+01  .000000000000D+00
     .963422149325D+00  .223312500000D+03 -.229618004466D+01 -.793247327650D-08
     .683242745517D-09  .100000000000D+01  .171000000000D+04  .000000000000D+00
     .240000000000D+01  .000000000000D+00 -.107102096081D-07  .730000000000D+02
     .403206000000D+06  .400000000000D+01
18 12 10 18 18  0  0.0  .220308545977D-03  .181898940355D-11  .000000000000D+00
     .500000000000D+02  .498750000000D+02  .518307303865D-08 -.386527949035D+00
     .264123082161D-05  .136267861817D-01  .113509595394D-04  .515374317551D+04
     .410400000000D+06 -.596046447754D-07 -.268627054885D+01  .206753611565D-06
     .929086824173D+00  .146375000000D+03 -.213857410438D+01 -.851464038323D-08
    -.418946022212D-09  .100000000000D+01  .171000000000D+04  .000000000000D+00
     .240000000000D+01  .000000000000D+00 -.107102096081D-07  .500000000000D+02
     .403206000000D+06  .400000000000D+01
19 12 10 18 18  0  0.0 -.314087606966D-03 -.352429196937D-11  .000000000000D+00
     .160000000000D+02  .199375000000D+02  .487306012537D-08 -.265179043431D+01
     .923871994019D-06  .861583498772D-02  .786967575550D-05  .515362332535D+04
     .410400000000D+06 -.130385160446D-06  .158709221893D+01 -.108033418655D-06
     .960729317981D+00  .231000000000D+03  .263763575246D+00 -.803854912355D-08
     .610382567741D-09  .100000000000D+01  .171000000000D+04  .000000000000D+00
     .240000000000D+01  .000000000000D+00 -.144354999065D-07  .160000000000D+02
     .403206000000D+06  .400000000000D+01
20 12 10 18 18  0  0.0  .708783045411D-04  .102318153949D-11  .000000000000D+00
     .119000000000D+03  .551562500000D+02  .508949771229D-08  .991095077831D-01
     .285916030407D-05  .513917778153D-02  .114683061838D-04  .515362184334D+04
     .410400000000D+06  .186264514923D-08 -.273987074522D+01  .372529029846D-08
     .929690080386D+00  .141093750000D+03  .126975939828D+01 -.828820237975D-08
    -.488234622646D-09  .100000000000D+01  .171000000000D+04  .000000000000D+00
     .240000000000D+01  .000000000000D+00 -.791624188423D-08  .119000000000D+03
     .403206000000D+06  .400000000000D+01
21 12 10 18 18  0  0.0 -.256686937064D-03 -.238742359215D-11  .000000000000D+00
     .450000000000D+02 -.249687500000D+02  .583631453450D-08  .740831307695D+00
    -.105425715446D-05  .193883399479D-01  .640749931335D-05  .515377641678D+04
     .410400000000D+06 -.150874257088D-06  .254777158119D+01  .147148966789D-06
     .931487028014D+00  .245312500000D+03 -.221012145874D+01 -.896894502113D-08
    -.522878922863D-09  .100000000000D+01  .171000000000D+04  .000000000000D+00
     .240000000000D+01  .000000000000D+00 -.111758708954D-07  .450000000000D+02
     .403206000000D+06  .400000000000D+01
23 12 10 18 18  0  0.0  .153069850057D-03 -.386535248253D-11  .000000000000D+00
     .850000000000D+02  .134718750000D+03  .452768859640D-08 -.303415827150D+01
     .683777034283D-05  .821779889520D-02  .422820448875D-05  .515357946968D+04
     .410400000000D+06 -.316649675369D-07 -.163132533913D+01 -.521540641785D-07
     .958177109637D+00  .298406250000D+03 -.292103974316D+01 -.822962851135D-08
     .233224000430D-09  .100000000000D+01  .171000000000D+04  .000000000000D+00
     .240000000000D+01  .000000000000D+00 -.204890966415D-07  .850000000000D+02
     .403206000000D+06  .400000000000D+01
24 12 10 18 18  0  0.0  .158837065101D-05  .170530256582D-11  .000000000000D+00
     .650000000000D+02 -.758437500000D+02  .456269005435D-08  .875378499142D+00
    -.376626849174D-05  .857315026224D-04  .197254121304D-05  .517666428566D+04
     .410400000000D+06 -.707805156708D-07 -.604754952848D+00 -.428408384323D-07
     .959438971570D+00  .334031250000D+03 -.116891676267D+01 -.828355932921D-08
    -.150720563831D-09  .100000000000D+01  .171000000000D+04  .000000000000D+00
     .340000000000D+01  .630000000000D+02  .465661287308D-08  .650000000000D+02
     .403206000000D+06  .400000000000D+01
25 12 10 18 18  0  0.0  .470583327115D-04  .159161572810D-11  .000000000000D+00
     .580000000000D+02 -.909062500000D+02  .405409744086D-08  .160864155815D+00
    -.481866300106D-05  .180903705768D-02  .106338411570D-04  .515365192413D+04
     .410400000000D+06  .186264514923D-07  .441409869373D+00  .353902578354D-07
     .970636349894D+00  .184125000000D+03  .745691567744D+00 -.781389690874D-08
     .166792661870D-09  .100000000000D+01  .171000000000D+04  .000000000000D+00
     .240000000000D+01  .000000000000D+00  .512227416039D-08  .580000000000D+02
     .403206000000D+06  .400000000000D+01
